UNKNOWN                 
1 89132U          26021.21984733  .00018459  00000+0  23666-1 0  9991
2 89132  63.4294   4.5499 2934031 319.6163  21.9579  8.87184259328610
UNKNOWN                 
1 89146U          26022.53658628  .00007419  00000+0  13541-2 0  9999
2 89146  98.2512 316.2731 0091311 288.3383  70.7903 14.63570304634844
UNKNOWN                 
1 89161U          26022.30599209  .00152103  00000+0  26160-2 0  9992
2 89161  97.6512  45.1585 0024770 277.4385  82.4052 15.50224636554842
UNKNOWN                 
1 89172U          26021.16939145  .00038094  00000+0  60673-2 0  9993
2 89172  82.0624 184.9104 0287599 159.9211 201.3583 14.47805477607592
UNKNOWN                 
1 89177U          26020.84689767  .00000126  00000+0  11791-3 0  9997
2 89177  82.9182 240.1233 0033216  35.5386 324.7972 13.73733405 68198
UNKNOWN                 
1 89183U          26019.99808958  .00000751  00000+0  69633-3 0  9995
2 89183  99.2197 295.2037 0131410  54.7912 306.5463 13.81629803612258
UNKNOWN                 
1 89184U          26022.59333205  .00031484  00000+0  38167-2 0  9998
2 89184  98.3879 254.2765 0011555   1.8195 358.3058 14.83472404498222
UNKNOWN                 
1 89213U          26022.61145797  .00001052  00000+0  69684-3 0  9998
2 89213  98.7772 258.6057 0228206  14.5130 346.2441 13.91643695458358
UNKNOWN                 
1 89251U          26022.23806641  .00013164  00000+0  76326-2 0  9997
2 89251  62.4778 310.4584 2829847 104.3942 288.4158  9.25658863376935
UNKNOWN                 
1 89261U          26022.24491064  .00001709  00000+0  51988-3 0  9998
2 89261  98.1570  19.9270 0013757  40.4159 319.8052 14.43212703539655
UNKNOWN                 
1 89304U          26021.43203560  .00101161  00000+0  93108-1 0  9999
2 89304  84.3205  93.3949 2873537 294.3080  54.7377  9.06392869441998
UNKNOWN                 
1 89349U          26022.20902048 -.00000094  00000+0 -35578-3 0  9995
2 89349  90.2453   8.2492 0029838 156.7978 203.4496 12.96260730483993
