CCSDS_OMM_VERS = 2.0
CREATION_DATE  = 
ORIGINATOR     = 

OBJECT_NAME    = UNKNOWN
OBJECT_ID      = 
CENTER_NAME    = EARTH
REF_FRAME      = TEME
TIME_SYSTEM    = UTC
MEAN_ELEMENT_THEORY = SGP/SGP4

EPOCH          = 2026-01-21T05:16:34.809312
MEAN_MOTION    = 8.87184259
ECCENTRICITY   = .2934031
INCLINATION    = 63.4294
RA_OF_ASC_NODE = 4.5499
ARG_OF_PERICENTER = 319.6163
MEAN_ANOMALY   = 21.9579

EPHEMERIS_TYPE = 0
CLASSIFICATION_TYPE = U
NORAD_CAT_ID   = 89132
ELEMENT_SET_NO = 999
REV_AT_EPOCH   = 32861
BSTAR          = .23666E-1
MEAN_MOTION_DOT = .18459E-3
MEAN_MOTION_DDOT = 0

CCSDS_OMM_VERS = 2.0
CREATION_DATE  = 
ORIGINATOR     = 

OBJECT_NAME    = UNKNOWN
OBJECT_ID      = 
CENTER_NAME    = EARTH
REF_FRAME      = TEME
TIME_SYSTEM    = UTC
MEAN_ELEMENT_THEORY = SGP/SGP4

EPOCH          = 2026-01-22T12:52:41.054592
MEAN_MOTION    = 14.63570304
ECCENTRICITY   = .0091311
INCLINATION    = 98.2512
RA_OF_ASC_NODE = 316.2731
ARG_OF_PERICENTER = 288.3383
MEAN_ANOMALY   = 70.7903

EPHEMERIS_TYPE = 0
CLASSIFICATION_TYPE = U
NORAD_CAT_ID   = 89146
ELEMENT_SET_NO = 999
REV_AT_EPOCH   = 63484
BSTAR          = .13541E-2
MEAN_MOTION_DOT = .7419E-4
MEAN_MOTION_DDOT = 0

CCSDS_OMM_VERS = 2.0
CREATION_DATE  = 
ORIGINATOR     = 

OBJECT_NAME    = UNKNOWN
OBJECT_ID      = 
CENTER_NAME    = EARTH
REF_FRAME      = TEME
TIME_SYSTEM    = UTC
MEAN_ELEMENT_THEORY = SGP/SGP4

EPOCH          = 2026-01-22T07:20:37.716576
MEAN_MOTION    = 15.50224636
ECCENTRICITY   = .002477
INCLINATION    = 97.6512
RA_OF_ASC_NODE = 45.1585
ARG_OF_PERICENTER = 277.4385
MEAN_ANOMALY   = 82.4052

EPHEMERIS_TYPE = 0
CLASSIFICATION_TYPE = U
NORAD_CAT_ID   = 89161
ELEMENT_SET_NO = 999
REV_AT_EPOCH   = 55484
BSTAR          = .2616E-2
MEAN_MOTION_DOT = .152103E-2
MEAN_MOTION_DDOT = 0

CCSDS_OMM_VERS = 2.0
CREATION_DATE  = 
ORIGINATOR     = 

OBJECT_NAME    = UNKNOWN
OBJECT_ID      = 
CENTER_NAME    = EARTH
REF_FRAME      = TEME
TIME_SYSTEM    = UTC
MEAN_ELEMENT_THEORY = SGP/SGP4

EPOCH          = 2026-01-21T04:03:55.421280
MEAN_MOTION    = 14.47805477
ECCENTRICITY   = .0287599
INCLINATION    = 82.0624
RA_OF_ASC_NODE = 184.9104
ARG_OF_PERICENTER = 159.9211
MEAN_ANOMALY   = 201.3583

EPHEMERIS_TYPE = 0
CLASSIFICATION_TYPE = U
NORAD_CAT_ID   = 89172
ELEMENT_SET_NO = 999
REV_AT_EPOCH   = 60759
BSTAR          = .60673E-2
MEAN_MOTION_DOT = .38094E-3
MEAN_MOTION_DDOT = 0

CCSDS_OMM_VERS = 2.0
CREATION_DATE  = 
ORIGINATOR     = 

OBJECT_NAME    = UNKNOWN
OBJECT_ID      = 
CENTER_NAME    = EARTH
REF_FRAME      = TEME
TIME_SYSTEM    = UTC
MEAN_ELEMENT_THEORY = SGP/SGP4

EPOCH          = 2026-01-20T20:19:31.958688
MEAN_MOTION    = 13.73733405
ECCENTRICITY   = .0033216
INCLINATION    = 82.9182
RA_OF_ASC_NODE = 240.1233
ARG_OF_PERICENTER = 35.5386
MEAN_ANOMALY   = 324.7972

EPHEMERIS_TYPE = 0
CLASSIFICATION_TYPE = U
NORAD_CAT_ID   = 89177
ELEMENT_SET_NO = 999
REV_AT_EPOCH   = 6819
BSTAR          = .11791E-3
MEAN_MOTION_DOT = .126E-5
MEAN_MOTION_DDOT = 0

CCSDS_OMM_VERS = 2.0
CREATION_DATE  = 
ORIGINATOR     = 

OBJECT_NAME    = UNKNOWN
OBJECT_ID      = 
CENTER_NAME    = EARTH
REF_FRAME      = TEME
TIME_SYSTEM    = UTC
MEAN_ELEMENT_THEORY = SGP/SGP4

EPOCH          = 2026-01-19T23:57:14.939712
MEAN_MOTION    = 13.81629803
ECCENTRICITY   = .013141
INCLINATION    = 99.2197
RA_OF_ASC_NODE = 295.2037
ARG_OF_PERICENTER = 54.7912
MEAN_ANOMALY   = 306.5463

EPHEMERIS_TYPE = 0
CLASSIFICATION_TYPE = U
NORAD_CAT_ID   = 89183
ELEMENT_SET_NO = 999
REV_AT_EPOCH   = 61225
BSTAR          = .69633E-3
MEAN_MOTION_DOT = .751E-5
MEAN_MOTION_DDOT = 0

CCSDS_OMM_VERS = 2.0
CREATION_DATE  = 
ORIGINATOR     = 

OBJECT_NAME    = UNKNOWN
OBJECT_ID      = 
CENTER_NAME    = EARTH
REF_FRAME      = TEME
TIME_SYSTEM    = UTC
MEAN_ELEMENT_THEORY = SGP/SGP4

EPOCH          = 2026-01-22T14:14:23.889120
MEAN_MOTION    = 14.83472404
ECCENTRICITY   = .0011555
INCLINATION    = 98.3879
RA_OF_ASC_NODE = 254.2765
ARG_OF_PERICENTER = 1.8195
MEAN_ANOMALY   = 358.3058

EPHEMERIS_TYPE = 0
CLASSIFICATION_TYPE = U
NORAD_CAT_ID   = 89184
ELEMENT_SET_NO = 999
REV_AT_EPOCH   = 49822
BSTAR          = .38167E-2
MEAN_MOTION_DOT = .31484E-3
MEAN_MOTION_DDOT = 0

CCSDS_OMM_VERS = 2.0
CREATION_DATE  = 
ORIGINATOR     = 

OBJECT_NAME    = UNKNOWN
OBJECT_ID      = 
CENTER_NAME    = EARTH
REF_FRAME      = TEME
TIME_SYSTEM    = UTC
MEAN_ELEMENT_THEORY = SGP/SGP4

EPOCH          = 2026-01-22T14:40:29.968608
MEAN_MOTION    = 13.91643695
ECCENTRICITY   = .0228206
INCLINATION    = 98.7772
RA_OF_ASC_NODE = 258.6057
ARG_OF_PERICENTER = 14.5130
MEAN_ANOMALY   = 346.2441

EPHEMERIS_TYPE = 0
CLASSIFICATION_TYPE = U
NORAD_CAT_ID   = 89213
ELEMENT_SET_NO = 999
REV_AT_EPOCH   = 45835
BSTAR          = .69684E-3
MEAN_MOTION_DOT = .1052E-4
MEAN_MOTION_DDOT = 0

CCSDS_OMM_VERS = 2.0
CREATION_DATE  = 
ORIGINATOR     = 

OBJECT_NAME    = UNKNOWN
OBJECT_ID      = 
CENTER_NAME    = EARTH
REF_FRAME      = TEME
TIME_SYSTEM    = UTC
MEAN_ELEMENT_THEORY = SGP/SGP4

EPOCH          = 2026-01-22T05:42:48.937824
MEAN_MOTION    = 9.25658863
ECCENTRICITY   = .2829847
INCLINATION    = 62.4778
RA_OF_ASC_NODE = 310.4584
ARG_OF_PERICENTER = 104.3942
MEAN_ANOMALY   = 288.4158

EPHEMERIS_TYPE = 0
CLASSIFICATION_TYPE = U
NORAD_CAT_ID   = 89251
ELEMENT_SET_NO = 999
REV_AT_EPOCH   = 37693
BSTAR          = .76326E-2
MEAN_MOTION_DOT = .13164E-3
MEAN_MOTION_DDOT = 0

CCSDS_OMM_VERS = 2.0
CREATION_DATE  = 
ORIGINATOR     = 

OBJECT_NAME    = UNKNOWN
OBJECT_ID      = 
CENTER_NAME    = EARTH
REF_FRAME      = TEME
TIME_SYSTEM    = UTC
MEAN_ELEMENT_THEORY = SGP/SGP4

EPOCH          = 2026-01-22T05:52:40.279296
MEAN_MOTION    = 14.43212703
ECCENTRICITY   = .0013757
INCLINATION    = 98.1570
RA_OF_ASC_NODE = 19.9270
ARG_OF_PERICENTER = 40.4159
MEAN_ANOMALY   = 319.8052

EPHEMERIS_TYPE = 0
CLASSIFICATION_TYPE = U
NORAD_CAT_ID   = 89261
ELEMENT_SET_NO = 999
REV_AT_EPOCH   = 53965
BSTAR          = .51988E-3
MEAN_MOTION_DOT = .1709E-4
MEAN_MOTION_DDOT = 0

CCSDS_OMM_VERS = 2.0
CREATION_DATE  = 
ORIGINATOR     = 

OBJECT_NAME    = UNKNOWN
OBJECT_ID      = 
CENTER_NAME    = EARTH
REF_FRAME      = TEME
TIME_SYSTEM    = UTC
MEAN_ELEMENT_THEORY = SGP/SGP4

EPOCH          = 2026-01-21T10:22:07.875840
MEAN_MOTION    = 9.06392869
ECCENTRICITY   = .2873537
INCLINATION    = 84.3205
RA_OF_ASC_NODE = 93.3949
ARG_OF_PERICENTER = 294.3080
MEAN_ANOMALY   = 54.7377

EPHEMERIS_TYPE = 0
CLASSIFICATION_TYPE = U
NORAD_CAT_ID   = 89304
ELEMENT_SET_NO = 999
REV_AT_EPOCH   = 44199
BSTAR          = .93108E-1
MEAN_MOTION_DOT = .101161E-2
MEAN_MOTION_DDOT = 0

CCSDS_OMM_VERS = 2.0
CREATION_DATE  = 
ORIGINATOR     = 

OBJECT_NAME    = UNKNOWN
OBJECT_ID      = 
CENTER_NAME    = EARTH
REF_FRAME      = TEME
TIME_SYSTEM    = UTC
MEAN_ELEMENT_THEORY = SGP/SGP4

EPOCH          = 2026-01-22T05:00:59.369472
MEAN_MOTION    = 12.96260730
ECCENTRICITY   = .0029838
INCLINATION    = 90.2453
RA_OF_ASC_NODE = 8.2492
ARG_OF_PERICENTER = 156.7978
MEAN_ANOMALY   = 203.4496

EPHEMERIS_TYPE = 0
CLASSIFICATION_TYPE = U
NORAD_CAT_ID   = 89349
ELEMENT_SET_NO = 999
REV_AT_EPOCH   = 48399
BSTAR          = -.35578E-3
MEAN_MOTION_DOT = -.94E-6
MEAN_MOTION_DDOT = 0

